{
  "type": "FeatureCollection",
  "features": [
    {
      "type": "Feature",
      "properties": {
        "norad_id": 31303,
        "name": "FENGYUN 1C DEB",
        "group": "fengyun-1c-debris",
        "lat": 60.10104919143124,
        "lon": -13.756475894574525,
        "alt_km": 850.6188833155538,
        "timestamp": "2025-12-11T10:53:16.169210+00:00",
        "meta_object_name": "FENGYUN 1C DEB",
        "meta_object_id": "1999-025BPM",
        "meta_epoch": "2025-12-10T20:58:59.851776",
        "meta_mean_motion": 14.11023742,
        "meta_eccentricity": 0.0011516,
        "meta_inclination": 98.7048,
        "meta_ra_of_asc_node": 1.1347,
        "meta_arg_of_pericenter": 157.2877,
        "meta_mean_anomaly": 202.8806,
        "meta_ephemeris_type": 0,
        "meta_classification_type": "U",
        "meta_norad_cat_id": 31303,
        "meta_element_set_no": 999,
        "meta_rev_at_epoch": 96292,
        "meta_bstar": 0.00013235,
        "meta_mean_motion_dot": 1.95e-06,
        "meta_mean_motion_ddot": 0,
        "tle_line1": "1 31303U 99025BPM 25344.87430384  .00000195  00000+0  13235-3 0  9991",
        "tle_line2": "2 31303  98.7048   1.1347 0011516 157.2877 202.8806 14.11023742962924"
      },
      "geometry": {
        "type": "Point",
        "coordinates": [
          -13.756475894574525,
          60.10104919143124
        ]
      }
    },
    {
      "type": "Feature",
      "properties": {
        "norad_id": 31311,
        "name": "FENGYUN 1C DEB",
        "group": "fengyun-1c-debris",
        "lat": 33.20080229755957,
        "lon": 60.92559298765624,
        "alt_km": 783.1502322855722,
        "timestamp": "2025-12-11T10:53:16.169222+00:00",
        "meta_object_name": "FENGYUN 1C DEB",
        "meta_object_id": "1999-025BPP",
        "meta_epoch": "2025-12-11T04:19:12.512352",
        "meta_mean_motion": 14.29722723,
        "meta_eccentricity": 0.0018783,
        "meta_inclination": 98.8525,
        "meta_ra_of_asc_node": 66.5011,
        "meta_arg_of_pericenter": 91.303,
        "meta_mean_anomaly": 334.9252,
        "meta_ephemeris_type": 0,
        "meta_classification_type": "U",
        "meta_norad_cat_id": 31311,
        "meta_element_set_no": 999,
        "meta_rev_at_epoch": 96199,
        "meta_bstar": 0.0026904,
        "meta_mean_motion_dot": 6.876e-05,
        "meta_mean_motion_ddot": 0,
        "tle_line1": "1 31311U 99025BPP 25345.18000593  .00006876  00000+0  26904-2 0  9998",
        "tle_line2": "2 31311  98.8525  66.5011 0018783  91.3030 334.9252 14.29722723961991"
      },
      "geometry": {
        "type": "Point",
        "coordinates": [
          60.92559298765624,
          33.20080229755957
        ]
      }
    },
    {
      "type": "Feature",
      "properties": {
        "norad_id": 31312,
        "name": "FENGYUN 1C DEB",
        "group": "fengyun-1c-debris",
        "lat": -28.097606517143937,
        "lon": -24.0624596353708,
        "alt_km": 897.3195731287533,
        "timestamp": "2025-12-11T10:53:16.169233+00:00",
        "meta_object_name": "FENGYUN 1C DEB",
        "meta_object_id": "1999-025BPQ",
        "meta_epoch": "2025-12-10T11:38:58.756128",
        "meta_mean_motion": 14.00915734,
        "meta_eccentricity": 0.00579,
        "meta_inclination": 98.8587,
        "meta_ra_of_asc_node": 330.2224,
        "meta_arg_of_pericenter": 242.6838,
        "meta_mean_anomaly": 247.7712,
        "meta_ephemeris_type": 0,
        "meta_classification_type": "U",
        "meta_norad_cat_id": 31312,
        "meta_element_set_no": 999,
        "meta_rev_at_epoch": 95114,
        "meta_bstar": 0.00075527153,
        "meta_mean_motion_dot": 1.103e-05,
        "meta_mean_motion_ddot": 0,
        "tle_line1": "1 31312U 99025BPQ 25344.48540227  .00001103  00000+0  75527-3 0  9998",
        "tle_line2": "2 31312  98.8587 330.2224 0057900 242.6838 247.7712 14.00915734951141"
      },
      "geometry": {
        "type": "Point",
        "coordinates": [
          -24.0624596353708,
          -28.097606517143937
        ]
      }
    },
    {
      "type": "Feature",
      "properties": {
        "norad_id": 31313,
        "name": "FENGYUN 1C DEB",
        "group": "fengyun-1c-debris",
        "lat": -78.06474901367004,
        "lon": -62.00980293728831,
        "alt_km": 826.4958978142895,
        "timestamp": "2025-12-11T10:53:16.169243+00:00",
        "meta_object_name": "FENGYUN 1C DEB",
        "meta_object_id": "1999-025BPR",
        "meta_epoch": "2025-12-10T16:42:12.321216",
        "meta_mean_motion": 14.22269804,
        "meta_eccentricity": 0.00445438,
        "meta_inclination": 99.015,
        "meta_ra_of_asc_node": 248.5342,
        "meta_arg_of_pericenter": 187.0827,
        "meta_mean_anomaly": 172.9726,
        "meta_ephemeris_type": 0,
        "meta_classification_type": "U",
        "meta_norad_cat_id": 31313,
        "meta_element_set_no": 999,
        "meta_rev_at_epoch": 97033,
        "meta_bstar": 0.00045183078,
        "meta_mean_motion_dot": 9.67e-06,
        "meta_mean_motion_ddot": 0,
        "tle_line1": "1 31313U 99025BPR 25344.69597594  .00000967  00000+0  45183-3 0  9993",
        "tle_line2": "2 31313  99.0150 248.5342 0044543 187.0827 172.9726 14.22269804970332"
      },
      "geometry": {
        "type": "Point",
        "coordinates": [
          -62.00980293728831,
          -78.06474901367004
        ]
      }
    },
    {
      "type": "Feature",
      "properties": {
        "norad_id": 31314,
        "name": "FENGYUN 1C DEB",
        "group": "fengyun-1c-debris",
        "lat": 46.78175296030104,
        "lon": -30.013712890470963,
        "alt_km": 832.8894663409756,
        "timestamp": "2025-12-11T10:53:16.169253+00:00",
        "meta_object_name": "FENGYUN 1C DEB",
        "meta_object_id": "1999-025BPS",
        "meta_epoch": "2025-12-06T05:53:33.958752",
        "meta_mean_motion": 14.04913607,
        "meta_eccentricity": 0.00791603,
        "meta_inclination": 98.8218,
        "meta_ra_of_asc_node": 334.4356,
        "meta_arg_of_pericenter": 15.6231,
        "meta_mean_anomaly": 344.7353,
        "meta_ephemeris_type": 0,
        "meta_classification_type": "U",
        "meta_norad_cat_id": 31314,
        "meta_element_set_no": 999,
        "meta_rev_at_epoch": 60723,
        "meta_bstar": 0.00045752491,
        "meta_mean_motion_dot": 7.13e-06,
        "meta_mean_motion_ddot": 0,
        "tle_line1": "1 31314U 99025BPS 25340.24553193  .00000713  00000+0  45752-3 0  9999",
        "tle_line2": "2 31314  98.8218 334.4356 0079160  15.6231 344.7353 14.04913607607231"
      },
      "geometry": {
        "type": "Point",
        "coordinates": [
          -30.013712890470963,
          46.78175296030104
        ]
      }
    },
    {
      "type": "Feature",
      "properties": {
        "norad_id": 31319,
        "name": "FENGYUN 1C DEB",
        "group": "fengyun-1c-debris",
        "lat": 42.716781446688735,
        "lon": -123.89375317355218,
        "alt_km": 888.1882746984384,
        "timestamp": "2025-12-11T10:53:16.169266+00:00",
        "meta_object_name": "FENGYUN 1C DEB",
        "meta_object_id": "1999-025BPX",
        "meta_epoch": "2025-12-09T12:24:10.390752",
        "meta_mean_motion": 13.75826621,
        "meta_eccentricity": 0.01706275,
        "meta_inclination": 98.8309,
        "meta_ra_of_asc_node": 242.5626,
        "meta_arg_of_pericenter": 95.4858,
        "meta_mean_anomaly": 81.2439,
        "meta_ephemeris_type": 0,
        "meta_classification_type": "U",
        "meta_norad_cat_id": 31319,
        "meta_element_set_no": 999,
        "meta_rev_at_epoch": 93643,
        "meta_bstar": 0.00026047465,
        "meta_mean_motion_dot": 2.42e-06,
        "meta_mean_motion_ddot": 0,
        "tle_line1": "1 31319U 99025BPX 25343.51678693  .00000242  00000+0  26047-3 0  9993",
        "tle_line2": "2 31319  98.8309 242.5626 0170627  95.4858  81.2439 13.75826621936438"
      },
      "geometry": {
        "type": "Point",
        "coordinates": [
          -123.89375317355218,
          42.716781446688735
        ]
      }
    },
    {
      "type": "Feature",
      "properties": {
        "norad_id": 31321,
        "name": "FENGYUN 1C DEB",
        "group": "fengyun-1c-debris",
        "lat": 18.69348919257832,
        "lon": -112.66606298471227,
        "alt_km": 826.6691367467147,
        "timestamp": "2025-12-11T10:53:16.169276+00:00",
        "meta_object_name": "FENGYUN 1C DEB",
        "meta_object_id": "1999-025BPZ",
        "meta_epoch": "2025-11-28T23:11:37.489632",
        "meta_mean_motion": 14.13809948,
        "meta_eccentricity": 0.00293651,
        "meta_inclination": 98.7348,
        "meta_ra_of_asc_node": 52.1537,
        "meta_arg_of_pericenter": 217.1862,
        "meta_mean_anomaly": 142.7277,
        "meta_ephemeris_type": 0,
        "meta_classification_type": "U",
        "meta_norad_cat_id": 31321,
        "meta_element_set_no": 999,
        "meta_rev_at_epoch": 57189,
        "meta_bstar": 0.00017233355,
        "meta_mean_motion_dot": 2.84e-06,
        "meta_mean_motion_ddot": 0,
        "tle_line1": "1 31321U 99025BPZ 25332.96640613  .00000284  00000+0  17233-3 0  9997",
        "tle_line2": "2 31321  98.7348  52.1537 0029365 217.1862 142.7277 14.13809948571893"
      },
      "geometry": {
        "type": "Point",
        "coordinates": [
          -112.66606298471227,
          18.69348919257832
        ]
      }
    }
  ]
}